[{"OBJECT_NAME":"STARLINK-31848","OBJECT_ID":"2024-093C","EPOCH":"2026-03-09T09:57:19.658304","MEAN_MOTION":15.27561249,"ECCENTRICITY":0.00010998,"INCLINATION":43.0002,"RA_OF_ASC_NODE":206.9663,"ARG_OF_PERICENTER":289.2615,"MEAN_ANOMALY":70.8118,"EPHEMERIS_TYPE":0,"CLASSIFICATION_TYPE":"U","NORAD_CAT_ID":59784,"ELEMENT_SET_NO":999,"REV_AT_EPOCH":10269,"BSTAR":-6.495865e-6,"MEAN_MOTION_DOT":-4.41e-6,"MEAN_MOTION_DDOT":0},{"OBJECT_NAME":"PEGASUS R\/B","OBJECT_ID":"1996-049B","EPOCH":"2026-03-09T22:06:46.685952","MEAN_MOTION":11.99903006,"ECCENTRICITY":0.16621219,"INCLINATION":82.9422,"RA_OF_ASC_NODE":19.0182,"ARG_OF_PERICENTER":29.5123,"MEAN_ANOMALY":339.0152,"EPHEMERIS_TYPE":0,"CLASSIFICATION_TYPE":"U","NORAD_CAT_ID":24286,"ELEMENT_SET_NO":999,"REV_AT_EPOCH":22957,"BSTAR":0.0012235384,"MEAN_MOTION_DOT":0.00017523,"MEAN_MOTION_DDOT":0}]
